IRIDIUM 171             
1 43929U 19002H   25214.17966143  .00000268  00000+0  88466-4 0  9991
2 43929  86.4005 127.2261 0002197  92.3321 267.8127 14.34219602343232
IRIDIUM 170             
1 43930U 19002J   25213.71694563  .00000964  00000+0  14895-3 0  9993
2 43930  86.6114 127.1641 0002440  89.9825 270.1672 14.72248224352258
IRIDIUM 167             
1 43931U 19002K   25214.31285824  .00000216  00000+0  70141-4 0  9994
2 43931  86.3997 126.9188 0002057  90.9160 269.2271 14.34217470343257
IRIDIUM 181             
1 56726U 23068S   25214.46856680  .00000171  00000+0  44793-4 0  9991
2 56726  86.4541 189.9138 0002693  97.7344 262.4162 14.43307421116469
IRIDIUM 177             
1 56727U 23068T   25213.70218103  .00001326  00000+0  17101-3 0  9995
2 56727  86.1983 120.5339 0002254  92.4223 267.7256 14.80226375119107
IRIDIUM 174             
1 56728U 23068U   25214.18036307  .00000990  00000+0  15302-3 0  9990
2 56728  86.6129 127.0857 0002471  72.1096 288.0390 14.72255612119085
IRIDIUM 178             
1 56729U 23068V   25214.36729856  .00001286  00000+0  16580-3 0  9997
2 56729  86.6599 158.5710 0002457  83.8151 276.3350 14.80236654119203
IRIDIUM 179             
1 56730U 23068W   25214.36192495  .00001217  00000+0  15674-3 0  9999
2 56730  86.6839 166.5810 0002374  90.0882 270.0612 14.80236387119206
